NORAD_CAT_ID,OBJECT_NAME,OBJECT_TYPE,EPOCH,MEAN_MOTION,ECCENTRICITY,INCLINATION,RA_OF_ASC_NODE,ARG_OF_PERICENTER,MEAN_ANOMALY,BSTAR,MEAN_MOTION_DOT,MEAN_MOTION_DDOT,TLE_LINE0,TLE_LINE1,TLE_LINE2,SEMIMAJOR_AXIS,PERIOD,APOGEE,PERIGEE,DECAYED
51463.0,STARLINK-3419,PAYLOAD,2023-11-02 23:56:46,15.08841903,0.0001439,53.2158,169.452,88.7373,271.3784,-3.3486e-05,-8.21e-06,0.0,0 STARLINK-3419,1 51463U 22010H   23306.99775869 -.00000821  00000-0 -33486-4 0  9999,2 51463  53.2158 169.4520 0001439  88.7373 271.3784 15.08841903 97787,6917.875,95.437,540.735,538.744,0.0
51463.0,STARLINK-3419,PAYLOAD,2023-11-03 07:53:42,15.08839411,0.0001456,53.2158,167.9654,89.9054,270.2105,-5.1098e-05,-1.101e-05,0.0,0 STARLINK-3419,1 51463U 22010H   23307.32896052 -.00001101  00000-0 -51098-4 0  9996,2 51463  53.2158 167.9654 0001456  89.9054 270.2105 15.08839411 97085,6917.882,95.438,540.754,538.74,0.0
51463.0,STARLINK-3419,PAYLOAD,2023-11-03 22:12:10,15.08842681,0.000141,53.2154,165.2892,90.6803,269.4351,0.00014758,2.062e-05,0.0,0 STARLINK-3419,1 51463U 22010H   23307.92512049  .00002062  00000-0  14758-3 0  9999,2 51463  53.2154 165.2892 0001410  90.6803 269.4351 15.08842681 97173,6917.872,95.437,540.713,538.762,0.0
51463.0,STARLINK-3419,PAYLOAD,2023-11-04 07:44:29,15.08839887,0.0001388,53.2145,163.5042,87.5906,272.5245,0.00011356,1.52e-05,0.0,0 STARLINK-3419,1 51463U 22010H   23308.32256222  .00001520  00000-0  11356-3 0  9991,2 51463  53.2145 163.5042 0001388  87.5906 272.5245 15.08839887 97984,6917.881,95.438,540.706,538.786,0.0
51463.0,STARLINK-3419,PAYLOAD,2023-11-04 22:02:57,15.08843044,0.0001404,53.2145,160.8272,84.9808,275.1344,0.00019703,2.849e-05,0.0,0 STARLINK-3419,1 51463U 22010H   23308.91872302  .00002849  00000-0  19703-3 0  9998,2 51463  53.2145 160.8272 0001404  84.9808 275.1344 15.08843044 97327,6917.871,95.437,540.707,538.765,0.0
51463.0,STARLINK-3419,PAYLOAD,2023-11-05 07:35:16,15.0885071,0.0001411,53.2148,159.0437,85.6577,274.4577,0.00032325,4.862e-05,0.0,0 STARLINK-3419,1 51463U 22010H   23309.31616041  .00004862  00000-0  32325-3 0  9991,2 51463  53.2148 159.0437 0001411  85.6577 274.4577 15.08850710 97386,6917.848,95.437,540.689,538.737,0.0
51463.0,STARLINK-3419,PAYLOAD,2023-11-05 20:18:20,15.08858471,0.0001499,53.2152,156.662,99.5918,260.5244,0.00044645,6.828e-05,0.0,0 STARLINK-3419,1 51463U 22010H   23309.84607463  .00006828  00000-0  44645-3 0  9999,2 51463  53.2152 156.6620 0001499  99.5918 260.5244 15.08858471 98219,6917.824,95.436,540.726,538.652,0.0
51463.0,STARLINK-3419,PAYLOAD,2023-11-05 23:29:06,15.08872998,0.0001604,53.2159,156.066,102.1225,257.9947,0.00080646,0.00012582,0.0,0 STARLINK-3419,1 51463U 22010H   23309.97855022  .00012582  00000-0  80646-3 0  9994,2 51463  53.2159 156.0660 0001604 102.1225 257.9947 15.08872998 98236,6917.78,95.435,540.754,538.535,0.0
51463.0,STARLINK-3419,PAYLOAD,2023-11-06 20:09:07,15.08808235,0.0001282,53.2152,152.2039,92.7181,267.3958,-0.0015204,-0.00024382,0.0,0 STARLINK-3419,1 51463U 22010H   23310.83967204 -.00024382  00000-0 -15204-2 0  9997,2 51463  53.2152 152.2039 0001282  92.7181 267.3958 15.08808235 98368,6917.977,95.44,540.729,538.956,0.0
51463.0,STARLINK-3419,PAYLOAD,2023-11-07 19:59:57,15.08806758,0.0001296,53.2159,147.7424,96.6509,263.4631,0.00096002,0.0001501,0.0,0 STARLINK-3419,1 51463U 22010H   23311.83330569  .00015010  00000-0  96002-3 0  9998,2 51463  53.2159 147.7424 0001296  96.6509 263.4631 15.08806758 98514,6917.982,95.44,540.744,538.95,0.0
51463.0,STARLINK-3419,PAYLOAD,2023-11-08 19:50:44,15.08857756,0.0001274,53.2161,143.2839,95.1644,264.9494,0.0012331,0.00019401,0.0,0 STARLINK-3419,1 51463U 22010H   23312.82690567  .00019401  00000-0  12331-2 0  9995,2 51463  53.2161 143.2839 0001274  95.1644 264.9494 15.08857756 98661,6917.826,95.436,540.572,538.81,0.0
51463.0,STARLINK-3419,PAYLOAD,2023-11-09 05:23:03,15.08860075,0.000131,53.2158,141.501,101.3114,258.8026,0.00077543,0.00012081,0.0,0 STARLINK-3419,1 51463U 22010H   23313.22434151  .00012081  00000-0  77543-3 0  9999,2 51463  53.2158 141.5010 0001310 101.3114 258.8026 15.08860075 98720,6917.819,95.436,540.59,538.778,0.0
51463.0,STARLINK-3419,PAYLOAD,2023-11-09 19:41:30,15.08864068,0.0001298,53.2157,138.823,95.0675,265.0465,0.00040618,6.187e-05,0.0,0 STARLINK-3419,1 51463U 22010H   23313.82049289  .00006187  00000-0  40618-3 0  9992,2 51463  53.2157 138.8230 0001298  95.0675 265.0465 15.08864068 98068,6917.807,95.436,540.57,538.774,0.0
51463.0,STARLINK-3419,PAYLOAD,2023-11-10 05:13:49,15.08864505,0.0001329,53.2153,137.0387,89.9153,270.1992,0.00026936,4.004e-05,0.0,0 STARLINK-3419,1 51463U 22010H   23314.21792901  .00004004  00000-0  26936-3 0  9995,2 51463  53.2153 137.0387 0001329  89.9153 270.1992 15.08864505 98121,6917.805,95.436,540.59,538.751,0.0
51463.0,STARLINK-3419,PAYLOAD,2023-11-10 19:32:17,15.08846443,0.0001371,53.2151,134.3618,88.2697,271.8452,-5.0612e-05,-1.093e-05,0.0,0 STARLINK-3419,1 51463U 22010H   23314.81408939 -.00001093  00000-0 -50612-4 0  9992,2 51463  53.2151 134.3618 0001371  88.2697 271.8452 15.08846443 98960,6917.861,95.437,540.674,538.777,0.0
51463.0,STARLINK-3419,PAYLOAD,2023-11-11 11:26:08,15.08846289,0.0001435,53.2149,131.3867,85.0188,275.0968,8.8475e-05,1.121e-05,0.0,0 STARLINK-3419,1 51463U 22010H   23315.47648900  .00001121  00000-0  88475-4 0  9997,2 51463  53.2149 131.3867 0001435  85.0188 275.0968 15.08846289 98316,6917.861,95.437,540.719,538.733,0.0
51463.0,STARLINK-3419,PAYLOAD,2023-11-11 19:23:04,15.08849139,0.0001448,53.2151,129.9,85.0721,275.0437,0.00022237,3.254e-05,0.0,0 STARLINK-3419,1 51463U 22010H   23315.80768776  .00003254  00000-0  22237-3 0  9990,2 51463  53.2151 129.9000 0001448  85.0721 275.0437 15.08849139 98361,6917.852,95.437,540.719,538.716,0.0
51463.0,STARLINK-3419,PAYLOAD,2023-11-12 11:16:55,15.08841721,0.0001551,53.2151,126.927,83.096,277.0209,0.00014036,1.947e-05,0.0,0 STARLINK-3419,1 51463U 22010H   23316.47009101  .00001947  00000-0  14036-3 0  9999,2 51463  53.2151 126.9270 0001551  83.0960 277.0209 15.08841721 99218,6917.875,95.437,540.813,538.667,0.0
51463.0,STARLINK-3419,PAYLOAD,2023-11-12 17:38:28,15.08840996,0.0001391,53.2143,125.737,86.0924,274.0227,0.00015403,2.164e-05,0.0,0 STARLINK-3419,1 51463U 22010H   23316.73505109  .00002164  00000-0  15403-3 0  9998,2 51463  53.2143 125.7370 0001391  86.0924 274.0227 15.08840996 98503,6917.877,95.437,540.705,538.78,0.0
51463.0,STARLINK-3419,PAYLOAD,2023-11-13 11:07:42,15.08847439,0.0001418,53.2151,122.4662,84.0165,276.0989,0.00018061,2.588e-05,0.0,0 STARLINK-3419,1 51463U 22010H   23317.46368808  .00002588  00000-0  18061-3 0  9995,2 51463  53.2151 122.4662 0001418  84.0165 276.0989 15.08847439 98613,6917.858,95.437,540.704,538.742,0.0
51463.0,STARLINK-3419,PAYLOAD,2023-11-13 17:29:14,15.08850226,0.0001414,53.2151,121.2769,83.7107,276.4046,0.00019679,2.846e-05,0.0,0 STARLINK-3419,1 51463U 22010H   23317.72864571  .00002846  00000-0  19679-3 0  9995,2 51463  53.2151 121.2769 0001414  83.7107 276.4046 15.08850226 99400,6917.849,95.437,540.692,538.736,0.0
51463.0,STARLINK-3419,PAYLOAD,2023-11-14 04:36:57,15.08845275,0.0001371,53.2154,119.1956,82.9578,277.157,0.00012856,1.759e-05,0.0,0 STARLINK-3419,1 51463U 22010H   23318.19232685  .00001759  00000-0  12856-3 0  9994,2 51463  53.2154 119.1956 0001371  82.9578 277.1570 15.08845275 99477,6917.864,95.437,540.678,538.781,0.0
51463.0,STARLINK-3419,PAYLOAD,2023-11-14 17:20:02,15.08837219,0.0001396,53.2156,116.8167,83.4452,276.6699,3.9928e-05,3.48e-06,0.0,0 STARLINK-3419,1 51463U 22010H   23318.72225121  .00000348  00000-0  39928-4 0  9993,2 51463  53.2156 116.8167 0001396  83.4452 276.6699 15.08837219 99555,6917.889,95.438,540.72,538.788,0.0
51463.0,STARLINK-3419,PAYLOAD,2023-11-14 20:30:48,15.0883869,0.0001437,53.2157,116.2216,86.1094,274.0062,3.9107e-05,3.34e-06,0.0,0 STARLINK-3419,1 51463U 22010H   23318.85473037  .00000334  00000-0  39107-4 0  9992,2 51463  53.2157 116.2216 0001437  86.1094 274.0062 15.08838690 98822,6917.884,95.438,540.743,538.755,0.0
51463.0,STARLINK-3419,PAYLOAD,2023-11-15 17:10:49,15.08841122,0.0001513,53.2156,112.3551,90.4493,269.6673,1.6202e-05,-3e-07,0.0,0 STARLINK-3419,1 51463U 22010H   23319.71584903 -.00000030  00000-0  16202-4 0  9998,2 51463  53.2156 112.3551 0001513  90.4493 269.6673 15.08841122 98952,6917.877,95.437,540.789,538.695,0.0
51463.0,STARLINK-3419,PAYLOAD,2023-11-16 09:04:41,15.08830305,0.0001555,53.2176,109.383,92.3448,267.7722,2.7903e-05,1.56e-06,0.0,0 STARLINK-3419,1 51463U 22010H   23320.37825913  .00000156  00000-0  27903-4 0  9999,2 51463  53.2176 109.3830 0001555  92.3448 267.7722 15.08830305 99807,6917.91,95.438,540.851,538.699,0.0
51463.0,STARLINK-3419,PAYLOAD,2023-11-16 17:01:37,15.08828497,0.000156,53.2184,107.896,92.0096,268.1075,5.09e-06,-2.07e-06,0.0,0 STARLINK-3419,1 51463U 22010H   23320.70946265 -.00000207  00000-0  50900-5 0  9992,2 51463  53.2184 107.8960 0001560  92.0096 268.1075 15.08828497 99103,6917.916,95.438,540.86,538.701,0.0
51463.0,STARLINK-3419,PAYLOAD,2023-11-17 10:30:51,15.08830715,0.0001179,53.2163,104.6224,81.3223,278.7902,0.00012036,1.628e-05,0.0,0 STARLINK-3419,1 51463U 22010H   23321.43810037  .00001628  00000-0  12036-3 0  9993,2 51463  53.2163 104.6224 0001179  81.3223 278.7902 15.08830715 99963,6917.909,95.438,540.589,538.958,0.0
51463.0,STARLINK-3419,PAYLOAD,2023-11-17 16:52:26,15.08809427,7.63e-05,53.2126,103.4316,48.4398,311.666,-6.5697e-05,-1.332e-05,0.0,0 STARLINK-3419,1 51463U 22010H   23321.70308195 -.00001332  00000-0 -65697-4 0  9996,2 51463  53.2126 103.4316 0000763  48.4398 311.6660 15.08809427100008,6917.974,95.439,540.367,539.311,0.0
51463.0,STARLINK-3419,PAYLOAD,2023-11-18 08:46:17,15.08838664,0.0001053,53.213,100.458,65.7352,294.375,-0.0004293,-7.113e-05,0.0,0 STARLINK-3419,1 51463U 22010H   23322.36548477 -.00007113  00000-0 -42930-3 0  9995,2 51463  53.2130 100.4580 0001053  65.7352 294.3750 15.08838664100101,6917.884,95.438,540.478,539.021,0.0
